[{"OBJECT_NAME":"ORS-5 SENSORSAT","OBJECT_ID":"2017-050A","EPOCH":"2026-03-09T15:38:19.109184","MEAN_MOTION":15.0051408,"ECCENTRICITY":0.0010549,"INCLINATION":0.0472,"RA_OF_ASC_NODE":167.086,"ARG_OF_PERICENTER":19.2794,"MEAN_ANOMALY":173.6211,"EPHEMERIS_TYPE":0,"CLASSIFICATION_TYPE":"U","NORAD_CAT_ID":42921,"ELEMENT_SET_NO":999,"REV_AT_EPOCH":46607,"BSTAR":0.00021756,"MEAN_MOTION_DOT":3.656e-5,"MEAN_MOTION_DDOT":0},{"OBJECT_NAME":"NOAA 17 DEB","OBJECT_ID":"2002-032BW","EPOCH":"2026-03-08T22:40:23.580768","MEAN_MOTION":15.05196658,"ECCENTRICITY":0.00149213,"INCLINATION":98.7181,"RA_OF_ASC_NODE":121.0481,"ARG_OF_PERICENTER":217.4424,"MEAN_ANOMALY":142.5761,"EPHEMERIS_TYPE":0,"CLASSIFICATION_TYPE":"U","NORAD_CAT_ID":48737,"ELEMENT_SET_NO":999,"REV_AT_EPOCH":26108,"BSTAR":0.0055556624,"MEAN_MOTION_DOT":0.00080221,"MEAN_MOTION_DDOT":0}]
